FLOCK 3K-5              
1 43899U 18111Z   22220.66422366  .00056492  00000+0  14911-2 0  9991
2 43899  97.1881 110.1417 0014451 230.1502 129.8473 15.38166764201590
FLOCK 3K-7              
1 43902U 18111AC  22220.93021341  .00053634  00000+0  13752-2 0  9991
2 43902  97.1878 110.5047 0014451 227.4483 132.5544 15.39072232201644
FLOCK 3K-10             
1 43905U 18111AF  22221.42830066  .00011719  00000+0  25323-3 0  9997
2 43905  97.1855 111.5011 0010332 222.4444 137.6007 15.44605561201755
FLOCK 3K-9              
1 43906U 18111AG  22221.50581996  .00008963  00000+0  23690-3 0  9994
2 43906  97.1867 111.0197 0014660 223.3550 136.6543 15.38538018201732
FLOCK 4A-2              
1 44080U 19018C   22221.40398812  .00021054  00000+0  63515-3 0  9993
2 44080  97.3068 280.7419 0007428 275.7468  84.2928 15.34284434186794
FLOCK 4A-17             
1 44088U 19018L   22221.11513429  .00028681  00000+0  87232-3 0  9997
2 44088  97.3096 280.8417 0008454 283.8100  76.2202 15.33956066186753
FLOCK 4A-19             
1 44090U 19018N   22221.47333891  .00032464  00000+0  98499-3 0  9993
2 44090  97.3086 281.2335 0009227 285.5057  74.5167 15.34000316186815
FLOCK 4A-6              
1 44094U 19018S   22221.13151670  .00018424  00000+0  56275-3 0  9999
2 44094  97.3099 281.0406 0006606 292.5253  67.5290 15.33924687186773
FLOCK 4A-5              
1 44095U 19018T   22221.40280620  .00021526  00000+0  68690-3 0  9999
2 44095  97.3102 280.8394 0007069 294.4408  65.6096 15.32493458186778
FLOCK 4A-11             
1 44096U 19018U   22221.35979235  .00011311  00000+0  34701-3 0  9998
2 44096  97.3098 281.3792 0006385 294.5530  65.5047 15.33898944186807
FLOCK 4A-9              
1 44098U 19018W   22221.09192649  .00022857  00000+0  69967-3 0  9996
2 44098  97.3117 281.1502 0007493 302.5357  57.5162 15.33804535186763
FLOCK 4P-10             
1 44808U 19081E   22220.92864669  .00025317  00000+0  89988-3 0  9993
2 44808  97.3984 285.5217 0011620  42.2996 317.9138 15.28926124149914
FLOCK 4P-11             
1 44809U 19081F   22221.41963131  .00023073  00000+0  81986-3 0  9990
2 44809  97.3981 286.0590 0011491  42.0067 318.2052 15.28957433149999
FLOCK 4P-4              
1 44811U 19081H   22220.60969033  .00019628  00000+0  66838-3 0  9990
2 44811  97.4041 286.0447 0010219  34.4906 325.6996 15.30391305149896
FLOCK 4P-3              
1 44812U 19081J   22220.90272586  .00020625  00000+0  68865-3 0  9995
2 44812  97.4030 286.3929 0009749  33.1485 327.0365 15.31023112149948
FLOCK 4P-1              
1 44814U 19081L   22220.90936149  .00017119  00000+0  62498-3 0  9999
2 44814  97.4008 285.5388 0009943  38.2005 321.9937 15.28146209149908
FLOCK 4P-7              
1 44816U 19081N   22220.48749771  .00028129  00000+0  10001-2 0  9992
2 44816  97.3990 285.2856 0009849  38.2149 321.9787 15.28913521149856
FLOCK 4P-5              
1 44818U 19081Q   22220.91305989  .00008118  00000+0  29131-3 0  9992
2 44818  97.3993 285.8049 0009375  38.6222 321.5687 15.28912299149925
SKYSAT-C14              
1 45788U 20038BL  22221.39645531  .00027591  00000+0  34336-3 0  9995
2 45788  52.9931  68.0581 0006011   4.5313 355.5752 15.59744655122924
SKYSAT-C16              
1 45789U 20038BM  22221.10992672  .00024739  00000+0  32331-3 0  9990
2 45789  52.9945  69.1838 0010146 353.0285   7.0583 15.58475397122879
SKYSAT-C15              
1 45790U 20038BN  22220.87201247  .00026330  00000+0  34407-3 0  9991
2 45790  52.9929  70.4444 0010887 313.1103  46.8996 15.58430387122834
SKYSAT-C17              
1 46179U 20057BQ  22220.47357201  .00031488  00000+0  38969-3 0  9999
2 46179  52.9915 165.0626 0002401 347.8876  12.2078 15.59832645113379
SKYSAT-C18              
1 46180U 20057BR  22221.23554716  .00029137  00000+0  37164-3 0  9990
2 46180  52.9857 161.6196 0003591 290.2141  69.8484 15.59073415112197
SKYSAT-C19              
1 46235U 20057BS  22221.26858962  .00035705  00000+0  38787-3 0  9994
2 46235  52.9879 159.0593 0002641 338.0765  22.0134 15.63157082112238
FLOCK 4V-11             
1 46285U 20061P   22220.49788072  .00003724  00000+0  20375-3 0  9992
2 46285  97.4456 289.6020 0005121  86.2052 273.9766 15.14855677106377
FLOCK 4V-14             
1 46286U 20061Q   22220.82150298  .00004617  00000+0  25173-3 0  9996
2 46286  97.4458 289.9362 0004864  80.5023 279.6759 15.14853491106423
FLOCK 4V-8              
1 46288U 20061S   22221.47551584  .00010225  00000+0  55210-3 0  9990
2 46288  97.4456 290.5735 0004270  90.5118 269.6604 15.14906928106435
FLOCK 4V-6              
1 46289U 20061T   22220.41118232  .00017137  00000+0  92400-3 0  9994
2 46289  97.4463 289.5778 0003734 103.5776 256.5873 15.14836151106363
FLOCK 4V-5              
1 46290U 20061U   22221.15854605  .00002180  00000+0  12535-3 0  9992
2 46290  97.4456 290.0805 0004470  93.9047 266.2696 15.13497561106465
FLOCK 4V-7              
1 46291U 20061V   22220.91449881  .00010426  00000+0  56355-3 0  9992
2 46291  97.4461 290.1212 0003951  90.9896 269.1789 15.14866584106334
FLOCK 4V-10             
1 46296U 20061AA  22221.12625199  .00012368  00000+0  66820-3 0  9994
2 46296  97.4468 290.4904 0001918  79.8632 280.2817 15.14844552106441
FLOCK 4V-13             
1 46297U 20061AB  22221.51595915  .00010503  00000+0  56741-3 0  9990
2 46297  97.4468 290.8861 0002187  80.7314 279.4165 15.14887968106483
FLOCK 4V-1              
1 46313U 20061AT  22220.83849604  .00008561  00000+0  46286-3 0  9994
2 46313  97.4471 290.5760 0003232  33.1983 326.9452 15.14915445106419
FLOCK 4V-4              
1 46314U 20061AU  22221.13380992  .00011415  00000+0  61800-3 0  9990
2 46314  97.4471 290.7971 0003440  27.0670 333.0741 15.14785747106502
FLOCK 4V-2              
1 46321U 20061BB  22221.42982224  .00010349  00000+0  53703-3 0  9994
2 46321  97.4470 291.6256 0003345  27.0587 333.0820 15.16316133106460
FLOCK 4V-16             
1 46527U 20061BD  22220.81897575  .00005637  00000+0  25274-3 0  9994
2 46527  97.3971 291.0135 0005821 305.3287  54.7405 15.21599478102848
FLOCK 4V-15             
1 46528U 20061BE  22221.42690688  .00007710  00000+0  34464-3 0  9994
2 46528  97.3955 292.0418 0002216   7.5370 352.5899 15.21597624103326
FLOCK 4V-17             
1 46529U 20061BF  22220.79796266  .00014743  00000+0  65692-3 0  9994
2 46529  97.3921 291.0976 0001680 344.2852  15.8331 15.21530678102424
FLOCK 4V-18             
1 46597U 20061BG  22221.43429185  .00005196  00000+0  23363-3 0  9995
2 46597  97.4019 292.2223 0005206 310.6444  49.4339 15.21545224101881
FLOCK 4V-19             
1 46609U 20061BH  22220.80460339  .00005445  00000+0  24381-3 0  9993
2 46609  97.3897 290.9509 0001374 304.0223  56.0882 15.21670223101351
FLOCK 4V-20             
1 46612U 20061BJ  22220.67018223  .00005681  00000+0  25623-3 0  9995
2 46612  97.4004 291.2845 0005505 321.7385  38.3460 15.21397387100832
FLOCK 4V-22             
1 46735U 20061BL  22220.62736458  .00003619  00000+0  16357-3 0  9996
2 46735  97.3831 290.1737 0004522 316.0716  44.0168 15.21563411 99666
FLOCK 4V-23             
1 46737U 20061BM  22221.44851535  .00009028  00000+0  40202-3 0  9999
2 46737  97.3915 291.5708 0002200 271.7581  88.3403 15.21677840 99724
FLOCK 4V-24             
1 46738U 20061BN  22221.17896604  .00009195  00000+0  41025-3 0  9995
2 46738  97.3995 291.9368 0005171 329.5387  30.5588 15.21594664 99258
FLOCK 4V-25             
1 46812U 20061BP  22220.94358521  .00003530  00000+0  15925-3 0  9990
2 46812  97.3954 291.1480 0003534 291.4411  68.6469 15.21652567 98862
FLOCK 4E'-1             
1 46813U 20077A   22221.54265465  .00005745  00000+0  24723-3 0  9995
2 46813  97.4177 283.5462 0009819 221.4892 138.5600 15.22970939 98551
FLOCK 4E'-7             
1 46814U 20077B   22221.49395523  .00014445  00000+0  61731-3 0  9996
2 46814  97.4183 283.6286 0010718 216.6053 143.4452 15.22910558 98550
FLOCK 4E'-9             
1 46815U 20077C   22221.39461379  .00003564  00000+0  16543-3 0  9990
2 46815  97.4156 283.0171 0010413 212.8815 147.1774 15.20624188 98528
FLOCK 4E'-8             
1 46816U 20077D   22221.42119438  .00022144  00000+0  90693-3 0  9994
2 46816  97.4199 284.0302 0009150 198.9573 161.1325 15.24271261 98560
FLOCK 4E'-5             
1 46817U 20077E   22221.39702637  .00006493  00000+0  27901-3 0  9991
2 46817  97.4207 284.2266 0012607 200.3310 159.7426 15.22944414 98571
FLOCK 4E'-3             
1 46819U 20077G   22221.51170270  .00014976  00000+0  64113-3 0  9990
2 46819  97.4182 284.1723 0013461 196.0750 164.0062 15.22811772 98597
FLOCK 4E'-2             
1 46820U 20077H   22221.43193232  .00012369  00000+0  53225-3 0  9992
2 46820  97.4247 284.5585 0012798 186.9551 173.1510 15.22691754 98584
FLOCK 4E'-4             
1 46821U 20077J   22221.49970357  .00005475  00000+0  24414-3 0  9998
2 46821  97.4199 284.2880 0013634 182.8210 177.2951 15.21735927 98554
FLOCK 4E'-6             
1 46822U 20077K   22220.92333496  .00003136  00000+0  14381-3 0  9997
2 46822  97.4182 282.9346 0010647 195.2522 164.8418 15.21141844 98485
FLOCK 4V-26             
1 46825U 20061BQ  22221.44921001  .00010113  00000+0  45133-3 0  9998
2 46825  97.3969 292.1606 0004830 341.3320  18.8105 15.21560758 98478
FLOCK 4S-22             
1 47452U 21006AR  22220.85451010  .00004508  00000+0  23222-3 0  9993
2 47452  97.4414 279.1759 0012284  95.1017 265.1618 15.16827744 85213
FLOCK 4S-21             
1 47456U 21006AV  22220.59425278  .00004133  00000+0  21330-3 0  9997
2 47456  97.4420 278.9695 0012144  95.3245 264.9375 15.16818099 85175
FLOCK 4S-11             
1 47462U 21006BB  22220.88528060  .00003524  00000+0  19784-3 0  9992
2 47462  97.4372 277.6771 0009721 114.4651 245.7595 15.13936446 85131
FLOCK 4S-33             
1 47469U 21006BJ  22221.34793942  .00003964  00000+0  20457-3 0  9991
2 47469  97.4373 279.0251 0008578 107.6350 252.5821 15.16870429 85260
FLOCK 4S-12             
1 47471U 21006BL  22220.88156160  .00005955  00000+0  30532-3 0  9994
2 47471  97.4404 278.8119 0009378 110.1161 250.1083 15.16893805 85195
